STARLINK-11601 [DTC]    
1 63110U 25039G   26005.60298966  .00287322  00000+0  21327-2 0  9999
2 63110  42.9983 257.1032 0002679 234.4350 125.6268 15.71210445 49691
STARLINK-11630 [DTC]    
1 63111U 25039H   26005.62423065  .00272433  00000+0  20599-2 0  9999
2 63111  42.9988 257.2757 0001401 283.4316  76.6395 15.70815551 49694
STARLINK-11590 [DTC]    
1 63112U 25039J   26004.99902813  .00217590  00000+0  16521-2 0  9995
2 63112  42.9994 261.1909 0001787 256.8929 103.1739 15.70885295 49595
STARLINK-11598 [DTC]    
1 63113U 25039K   26005.60829853  .00315932  00000+0  23334-2 0  9996
2 63113  42.9983 257.1447 0003454 220.6555 139.4055 15.71241610 49695
STARLINK-11600 [DTC]    
1 63114U 25039L   26005.59237486  .00451718  00000+0  32622-2 0  9993
2 63114  42.9979 257.0155 0003498 256.0201 104.0278 15.71373480 49691
STARLINK-11597 [DTC]    
1 63115U 25039M   26005.64533823  .00308171  00000+0  23176-2 0  9992
2 63115  42.9984 256.5456 0001502 236.5917 123.4807 15.70835411 49708
STARLINK-11591 [DTC]    
1 63116U 25039N   26004.87704832  .00685370  00000+0  49395-2 0  9997
2 63116  42.9991 261.1014 0001057 232.9323 127.1448 15.70728286 49584
STARLINK-32955          
1 63117U 25039P   26005.28960185  .00038145  00000+0  13883-2 0  9994
2 63117  43.0025  10.5715 0002130 277.6541  82.4068 15.27583924 48377
STARLINK-32945          
1 63118U 25039Q   26005.36269567  .00037017  00000+0  13474-2 0  9993
2 63118  43.0053  10.2572 0001257 280.8592  79.2119 15.27593134 48384
STARLINK-32941          
1 63119U 25039R   26005.36657088  .00040345  00000+0  14669-2 0  9998
2 63119  43.0029 359.0224 0000884 248.3099 111.7659 15.27596969 48517
STARLINK-32942          
1 63120U 25039S   26005.43450443  .00049616  00000+0  17990-2 0  9994
2 63120  43.0004   9.9343 0001463 257.7831 102.2857 15.27606129 48398
STARLINK-32947          
1 63121U 25039T   26005.40238118  .00031394  00000+0  11449-2 0  9992
2 63121  43.0008   9.6931 0001289 246.4519 113.6198 15.27597004 48392
STARLINK-32961          
1 63122U 25039U   26005.38068341  .00034369  00000+0  12508-2 0  9991
2 63122  43.0014  10.3927 0001100 266.4056  93.6669 15.27627397 48382
STARLINK-32948          
1 63123U 25039V   26005.37296039  .00034694  00000+0  12630-2 0  9995
2 63123  43.0003  10.3327 0001230 268.2587  91.8124 15.27614325 48381
STARLINK-32957          
1 63124U 25039W   26005.38710776  .00034545  00000+0  12579-2 0  9993
2 63124  43.0028  10.4399 0001432 258.5188 101.5503 15.27607057 48386
STARLINK-11609 [DTC]    
1 63132U 25043A   26005.63255749  .00303411  00000+0  22476-2 0  9997
2 63132  42.9983 270.9166 0003647 207.9878 152.0794 15.71207225 49546
