[{"OBJECT_NAME":"STARLINK-11601 [DTC]","OBJECT_ID":"2025-039G","EPOCH":"2026-01-05T14:28:18.306624","MEAN_MOTION":15.71210445,"ECCENTRICITY":0.00026795,"INCLINATION":42.9983,"RA_OF_ASC_NODE":257.1032,"ARG_OF_PERICENTER":234.435,"MEAN_ANOMALY":125.6268,"EPHEMERIS_TYPE":0,"CLASSIFICATION_TYPE":"U","NORAD_CAT_ID":63110,"ELEMENT_SET_NO":999,"REV_AT_EPOCH":4969,"BSTAR":0.0021326631,"MEAN_MOTION_DOT":0.00287322,"MEAN_MOTION_DDOT":0},{"OBJECT_NAME":"STARLINK-11630 [DTC]","OBJECT_ID":"2025-039H","EPOCH":"2026-01-05T14:58:53.528160","MEAN_MOTION":15.70815551,"ECCENTRICITY":0.00014019,"INCLINATION":42.9988,"RA_OF_ASC_NODE":257.2757,"ARG_OF_PERICENTER":283.4316,"MEAN_ANOMALY":76.6395,"EPHEMERIS_TYPE":0,"CLASSIFICATION_TYPE":"U","NORAD_CAT_ID":63111,"ELEMENT_SET_NO":999,"REV_AT_EPOCH":4969,"BSTAR":0.0020598957,"MEAN_MOTION_DOT":0.00272433,"MEAN_MOTION_DDOT":0},{"OBJECT_NAME":"STARLINK-11590 [DTC]","OBJECT_ID":"2025-039J","EPOCH":"2026-01-04T23:58:36.030432","MEAN_MOTION":15.70885295,"ECCENTRICITY":0.00017878,"INCLINATION":42.9994,"RA_OF_ASC_NODE":261.1909,"ARG_OF_PERICENTER":256.8929,"MEAN_ANOMALY":103.1739,"EPHEMERIS_TYPE":0,"CLASSIFICATION_TYPE":"U","NORAD_CAT_ID":63112,"ELEMENT_SET_NO":999,"REV_AT_EPOCH":4959,"BSTAR":0.0016520608,"MEAN_MOTION_DOT":0.0021759,"MEAN_MOTION_DDOT":0},{"OBJECT_NAME":"STARLINK-11598 [DTC]","OBJECT_ID":"2025-039K","EPOCH":"2026-01-05T14:35:56.992992","MEAN_MOTION":15.7124161,"ECCENTRICITY":0.00034547,"INCLINATION":42.9983,"RA_OF_ASC_NODE":257.1447,"ARG_OF_PERICENTER":220.6555,"MEAN_ANOMALY":139.4055,"EPHEMERIS_TYPE":0,"CLASSIFICATION_TYPE":"U","NORAD_CAT_ID":63113,"ELEMENT_SET_NO":999,"REV_AT_EPOCH":4969,"BSTAR":0.0023333784,"MEAN_MOTION_DOT":0.00315932,"MEAN_MOTION_DDOT":0},{"OBJECT_NAME":"STARLINK-11600 [DTC]","OBJECT_ID":"2025-039L","EPOCH":"2026-01-05T14:13:01.187904","MEAN_MOTION":15.7137348,"ECCENTRICITY":0.00034983,"INCLINATION":42.9979,"RA_OF_ASC_NODE":257.0155,"ARG_OF_PERICENTER":256.0201,"MEAN_ANOMALY":104.0278,"EPHEMERIS_TYPE":0,"CLASSIFICATION_TYPE":"U","NORAD_CAT_ID":63114,"ELEMENT_SET_NO":999,"REV_AT_EPOCH":4969,"BSTAR":0.0032622214,"MEAN_MOTION_DOT":0.00451718,"MEAN_MOTION_DDOT":0},{"OBJECT_NAME":"STARLINK-11597 [DTC]","OBJECT_ID":"2025-039M","EPOCH":"2026-01-05T15:29:17.223072","MEAN_MOTION":15.70835411,"ECCENTRICITY":0.0001502,"INCLINATION":42.9984,"RA_OF_ASC_NODE":256.5456,"ARG_OF_PERICENTER":236.5917,"MEAN_ANOMALY":123.4807,"EPHEMERIS_TYPE":0,"CLASSIFICATION_TYPE":"U","NORAD_CAT_ID":63115,"ELEMENT_SET_NO":999,"REV_AT_EPOCH":4970,"BSTAR":0.0023176293,"MEAN_MOTION_DOT":0.00308171,"MEAN_MOTION_DDOT":0},{"OBJECT_NAME":"STARLINK-11591 [DTC]","OBJECT_ID":"2025-039N","EPOCH":"2026-01-04T21:02:56.974848","MEAN_MOTION":15.70728286,"ECCENTRICITY":0.0001057,"INCLINATION":42.9991,"RA_OF_ASC_NODE":261.1014,"ARG_OF_PERICENTER":232.9323,"MEAN_ANOMALY":127.1448,"EPHEMERIS_TYPE":0,"CLASSIFICATION_TYPE":"U","NORAD_CAT_ID":63116,"ELEMENT_SET_NO":999,"REV_AT_EPOCH":4958,"BSTAR":0.0049395,"MEAN_MOTION_DOT":0.0068537,"MEAN_MOTION_DDOT":0},{"OBJECT_NAME":"STARLINK-32955","OBJECT_ID":"2025-039P","EPOCH":"2026-01-05T06:57:01.599840","MEAN_MOTION":15.27583924,"ECCENTRICITY":0.000213,"INCLINATION":43.0025,"RA_OF_ASC_NODE":10.5715,"ARG_OF_PERICENTER":277.6541,"MEAN_ANOMALY":82.4068,"EPHEMERIS_TYPE":0,"CLASSIFICATION_TYPE":"U","NORAD_CAT_ID":63117,"ELEMENT_SET_NO":999,"REV_AT_EPOCH":4837,"BSTAR":0.0013883,"MEAN_MOTION_DOT":0.00038145,"MEAN_MOTION_DDOT":0},{"OBJECT_NAME":"STARLINK-32945","OBJECT_ID":"2025-039Q","EPOCH":"2026-01-05T08:42:16.905888","MEAN_MOTION":15.27593134,"ECCENTRICITY":0.00012572,"INCLINATION":43.0053,"RA_OF_ASC_NODE":10.2572,"ARG_OF_PERICENTER":280.8592,"MEAN_ANOMALY":79.2119,"EPHEMERIS_TYPE":0,"CLASSIFICATION_TYPE":"U","NORAD_CAT_ID":63118,"ELEMENT_SET_NO":999,"REV_AT_EPOCH":4838,"BSTAR":0.0013474133,"MEAN_MOTION_DOT":0.00037017,"MEAN_MOTION_DDOT":0},{"OBJECT_NAME":"STARLINK-32941","OBJECT_ID":"2025-039R","EPOCH":"2026-01-05T08:47:51.724032","MEAN_MOTION":15.27596969,"ECCENTRICITY":8.849e-5,"INCLINATION":43.0029,"RA_OF_ASC_NODE":359.0224,"ARG_OF_PERICENTER":248.3099,"MEAN_ANOMALY":111.7659,"EPHEMERIS_TYPE":0,"CLASSIFICATION_TYPE":"U","NORAD_CAT_ID":63119,"ELEMENT_SET_NO":999,"REV_AT_EPOCH":4851,"BSTAR":0.0014668724,"MEAN_MOTION_DOT":0.00040345,"MEAN_MOTION_DDOT":0},{"OBJECT_NAME":"STARLINK-32942","OBJECT_ID":"2025-039S","EPOCH":"2026-01-05T10:25:41.182752","MEAN_MOTION":15.27606129,"ECCENTRICITY":0.00014639,"INCLINATION":43.0004,"RA_OF_ASC_NODE":9.9343,"ARG_OF_PERICENTER":257.7831,"MEAN_ANOMALY":102.2857,"EPHEMERIS_TYPE":0,"CLASSIFICATION_TYPE":"U","NORAD_CAT_ID":63120,"ELEMENT_SET_NO":999,"REV_AT_EPOCH":4839,"BSTAR":0.0017990083,"MEAN_MOTION_DOT":0.00049616,"MEAN_MOTION_DDOT":0},{"OBJECT_NAME":"STARLINK-32947","OBJECT_ID":"2025-039T","EPOCH":"2026-01-05T09:39:25.733952","MEAN_MOTION":15.27597004,"ECCENTRICITY":0.00012897,"INCLINATION":43.0008,"RA_OF_ASC_NODE":9.6931,"ARG_OF_PERICENTER":246.4519,"MEAN_ANOMALY":113.6198,"EPHEMERIS_TYPE":0,"CLASSIFICATION_TYPE":"U","NORAD_CAT_ID":63121,"ELEMENT_SET_NO":999,"REV_AT_EPOCH":4839,"BSTAR":0.0011449128,"MEAN_MOTION_DOT":0.00031394,"MEAN_MOTION_DDOT":0},{"OBJECT_NAME":"STARLINK-32961","OBJECT_ID":"2025-039U","EPOCH":"2026-01-05T09:08:11.046624","MEAN_MOTION":15.27627397,"ECCENTRICITY":0.00011002,"INCLINATION":43.0014,"RA_OF_ASC_NODE":10.3927,"ARG_OF_PERICENTER":266.4056,"MEAN_ANOMALY":93.6669,"EPHEMERIS_TYPE":0,"CLASSIFICATION_TYPE":"U","NORAD_CAT_ID":63122,"ELEMENT_SET_NO":999,"REV_AT_EPOCH":4838,"BSTAR":0.0012508475,"MEAN_MOTION_DOT":0.00034369,"MEAN_MOTION_DDOT":0},{"OBJECT_NAME":"STARLINK-32948","OBJECT_ID":"2025-039V","EPOCH":"2026-01-05T08:57:03.777696","MEAN_MOTION":15.27614325,"ECCENTRICITY":0.00012307,"INCLINATION":43.0003,"RA_OF_ASC_NODE":10.3327,"ARG_OF_PERICENTER":268.2587,"MEAN_ANOMALY":91.8124,"EPHEMERIS_TYPE":0,"CLASSIFICATION_TYPE":"U","NORAD_CAT_ID":63123,"ELEMENT_SET_NO":999,"REV_AT_EPOCH":4838,"BSTAR":0.0012630195,"MEAN_MOTION_DOT":0.00034694,"MEAN_MOTION_DDOT":0},{"OBJECT_NAME":"STARLINK-32957","OBJECT_ID":"2025-039W","EPOCH":"2026-01-05T09:17:26.110464","MEAN_MOTION":15.27607057,"ECCENTRICITY":0.00014327,"INCLINATION":43.0028,"RA_OF_ASC_NODE":10.4399,"ARG_OF_PERICENTER":258.5188,"MEAN_ANOMALY":101.5503,"EPHEMERIS_TYPE":0,"CLASSIFICATION_TYPE":"U","NORAD_CAT_ID":63124,"ELEMENT_SET_NO":999,"REV_AT_EPOCH":4838,"BSTAR":0.0012579495,"MEAN_MOTION_DOT":0.00034545,"MEAN_MOTION_DDOT":0},{"OBJECT_NAME":"STARLINK-11609 [DTC]","OBJECT_ID":"2025-043A","EPOCH":"2026-01-05T15:10:52.967136","MEAN_MOTION":15.71207225,"ECCENTRICITY":0.00036472,"INCLINATION":42.9983,"RA_OF_ASC_NODE":270.9166,"ARG_OF_PERICENTER":207.9878,"MEAN_ANOMALY":152.0794,"EPHEMERIS_TYPE":0,"CLASSIFICATION_TYPE":"U","NORAD_CAT_ID":63132,"ELEMENT_SET_NO":999,"REV_AT_EPOCH":4954,"BSTAR":0.0022476289,"MEAN_MOTION_DOT":0.00303411,"MEAN_MOTION_DDOT":0}]
